CCSDS_OMM_VERS = 2.0
CREATION_DATE  = 
ORIGINATOR     = 

OBJECT_NAME    = STARLINK-35196
OBJECT_ID      = 2025-232C
CENTER_NAME    = EARTH
REF_FRAME      = TEME
TIME_SYSTEM    = UTC
MEAN_ELEMENT_THEORY = SGP/SGP4

EPOCH          = 2025-11-13T04:00:03.998880
MEAN_MOTION    = 15.39569558
ECCENTRICITY   = .0001118
INCLINATION    = 53.1600
RA_OF_ASC_NODE = 286.8143
ARG_OF_PERICENTER = 107.1137
MEAN_ANOMALY   = 190.8656

EPHEMERIS_TYPE = 0
CLASSIFICATION_TYPE = U
NORAD_CAT_ID   = 66007
ELEMENT_SET_NO = 999
REV_AT_EPOCH   = 479
BSTAR          = .97498E-3
MEAN_MOTION_DOT = .38732E-3
MEAN_MOTION_DDOT = 0

CCSDS_OMM_VERS = 2.0
CREATION_DATE  = 
ORIGINATOR     = 

OBJECT_NAME    = STARLINK-35236
OBJECT_ID      = 2025-232D
CENTER_NAME    = EARTH
REF_FRAME      = TEME
TIME_SYSTEM    = UTC
MEAN_ELEMENT_THEORY = SGP/SGP4

EPOCH          = 2025-11-13T03:41:35.225952
MEAN_MOTION    = 15.49249828
ECCENTRICITY   = .0001558
INCLINATION    = 53.1587
RA_OF_ASC_NODE = 286.6089
ARG_OF_PERICENTER = 50.0878
MEAN_ANOMALY   = 310.0268

EPHEMERIS_TYPE = 0
CLASSIFICATION_TYPE = U
NORAD_CAT_ID   = 66008
ELEMENT_SET_NO = 999
REV_AT_EPOCH   = 555
BSTAR          = .10461E-2
MEAN_MOTION_DOT = .58046E-3
MEAN_MOTION_DDOT = 0

CCSDS_OMM_VERS = 2.0
CREATION_DATE  = 
ORIGINATOR     = 

OBJECT_NAME    = STARLINK-35276
OBJECT_ID      = 2025-232E
CENTER_NAME    = EARTH
REF_FRAME      = TEME
TIME_SYSTEM    = UTC
MEAN_ELEMENT_THEORY = SGP/SGP4

EPOCH          = 2025-11-13T04:29:34.790208
MEAN_MOTION    = 15.39611066
ECCENTRICITY   = .0000851
INCLINATION    = 53.1599
RA_OF_ASC_NODE = 286.8188
ARG_OF_PERICENTER = 50.6297
MEAN_ANOMALY   = 309.4784

EPHEMERIS_TYPE = 0
CLASSIFICATION_TYPE = U
NORAD_CAT_ID   = 66009
ELEMENT_SET_NO = 999
REV_AT_EPOCH   = 555
BSTAR          = .16286E-2
MEAN_MOTION_DOT = .65282E-3
MEAN_MOTION_DDOT = 0

CCSDS_OMM_VERS = 2.0
CREATION_DATE  = 
ORIGINATOR     = 

OBJECT_NAME    = STARLINK-35297
OBJECT_ID      = 2025-232F
CENTER_NAME    = EARTH
REF_FRAME      = TEME
TIME_SYSTEM    = UTC
MEAN_ELEMENT_THEORY = SGP/SGP4

EPOCH          = 2025-11-13T04:00:03.998880
MEAN_MOTION    = 15.43340477
ECCENTRICITY   = .0001134
INCLINATION    = 53.1592
RA_OF_ASC_NODE = 286.5696
ARG_OF_PERICENTER = 84.0381
MEAN_ANOMALY   = 337.1855

EPHEMERIS_TYPE = 0
CLASSIFICATION_TYPE = U
NORAD_CAT_ID   = 66010
ELEMENT_SET_NO = 999
REV_AT_EPOCH   = 479
BSTAR          = -.51513E-1
MEAN_MOTION_DOT = -.2070539E-1
MEAN_MOTION_DDOT = 0

CCSDS_OMM_VERS = 2.0
CREATION_DATE  = 
ORIGINATOR     = 

OBJECT_NAME    = STARLINK-35256
OBJECT_ID      = 2025-232G
CENTER_NAME    = EARTH
REF_FRAME      = TEME
TIME_SYSTEM    = UTC
MEAN_ELEMENT_THEORY = SGP/SGP4

EPOCH          = 2025-11-13T04:00:03.998880
MEAN_MOTION    = 15.39569105
ECCENTRICITY   = .0001954
INCLINATION    = 53.1597
RA_OF_ASC_NODE = 286.7612
ARG_OF_PERICENTER = 82.5591
MEAN_ANOMALY   = 241.1745

EPHEMERIS_TYPE = 0
CLASSIFICATION_TYPE = U
NORAD_CAT_ID   = 66011
ELEMENT_SET_NO = 999
REV_AT_EPOCH   = 479
BSTAR          = .9751E-3
MEAN_MOTION_DOT = .38737E-3
MEAN_MOTION_DDOT = 0

CCSDS_OMM_VERS = 2.0
CREATION_DATE  = 
ORIGINATOR     = 

OBJECT_NAME    = STARLINK-35293
OBJECT_ID      = 2025-232H
CENTER_NAME    = EARTH
REF_FRAME      = TEME
TIME_SYSTEM    = UTC
MEAN_ELEMENT_THEORY = SGP/SGP4

EPOCH          = 2025-11-13T04:00:03.998880
MEAN_MOTION    = 15.39559852
ECCENTRICITY   = .0001168
INCLINATION    = 53.1591
RA_OF_ASC_NODE = 286.7106
ARG_OF_PERICENTER = 91.8510
MEAN_ANOMALY   = 257.6449

EPHEMERIS_TYPE = 0
CLASSIFICATION_TYPE = U
NORAD_CAT_ID   = 66012
ELEMENT_SET_NO = 999
REV_AT_EPOCH   = 479
BSTAR          = .11575E-2
MEAN_MOTION_DOT = .46089E-3
MEAN_MOTION_DDOT = 0

CCSDS_OMM_VERS = 2.0
CREATION_DATE  = 
ORIGINATOR     = 

OBJECT_NAME    = STARLINK-35307
OBJECT_ID      = 2025-232J
CENTER_NAME    = EARTH
REF_FRAME      = TEME
TIME_SYSTEM    = UTC
MEAN_ELEMENT_THEORY = SGP/SGP4

EPOCH          = 2025-11-13T04:36:15.780384
MEAN_MOTION    = 15.39504599
ECCENTRICITY   = .0001316
INCLINATION    = 53.1607
RA_OF_ASC_NODE = 286.8483
ARG_OF_PERICENTER = 104.1093
MEAN_ANOMALY   = 256.0058

EPHEMERIS_TYPE = 0
CLASSIFICATION_TYPE = U
NORAD_CAT_ID   = 66013
ELEMENT_SET_NO = 999
REV_AT_EPOCH   = 557
BSTAR          = .19594E-2
MEAN_MOTION_DOT = .78488E-3
MEAN_MOTION_DDOT = 0

CCSDS_OMM_VERS = 2.0
CREATION_DATE  = 
ORIGINATOR     = 

OBJECT_NAME    = STARLINK-35395
OBJECT_ID      = 2025-232K
CENTER_NAME    = EARTH
REF_FRAME      = TEME
TIME_SYSTEM    = UTC
MEAN_ELEMENT_THEORY = SGP/SGP4

EPOCH          = 2025-11-13T04:22:54.516288
MEAN_MOTION    = 15.39577523
ECCENTRICITY   = .000196
INCLINATION    = 53.1594
RA_OF_ASC_NODE = 286.7893
ARG_OF_PERICENTER = 106.9482
MEAN_ANOMALY   = 253.1738

EPHEMERIS_TYPE = 0
CLASSIFICATION_TYPE = U
NORAD_CAT_ID   = 66014
ELEMENT_SET_NO = 999
REV_AT_EPOCH   = 557
BSTAR          = .1945E-2
MEAN_MOTION_DOT = .78091E-3
MEAN_MOTION_DDOT = 0

CCSDS_OMM_VERS = 2.0
CREATION_DATE  = 
ORIGINATOR     = 

OBJECT_NAME    = STARLINK-34622
OBJECT_ID      = 2025-232L
CENTER_NAME    = EARTH
REF_FRAME      = TEME
TIME_SYSTEM    = UTC
MEAN_ELEMENT_THEORY = SGP/SGP4

EPOCH          = 2025-11-13T03:37:08.078880
MEAN_MOTION    = 15.49278719
ECCENTRICITY   = .0000852
INCLINATION    = 53.1587
RA_OF_ASC_NODE = 286.5878
ARG_OF_PERICENTER = 25.4145
MEAN_ANOMALY   = 334.6906

EPHEMERIS_TYPE = 0
CLASSIFICATION_TYPE = U
NORAD_CAT_ID   = 66015
ELEMENT_SET_NO = 999
REV_AT_EPOCH   = 556
BSTAR          = .188E-2
MEAN_MOTION_DOT = .105421E-2
MEAN_MOTION_DDOT = 0

CCSDS_OMM_VERS = 2.0
CREATION_DATE  = 
ORIGINATOR     = 

OBJECT_NAME    = STARLINK-35243
OBJECT_ID      = 2025-232M
CENTER_NAME    = EARTH
REF_FRAME      = TEME
TIME_SYSTEM    = UTC
MEAN_ELEMENT_THEORY = SGP/SGP4

EPOCH          = 2025-11-13T03:37:37.888608
MEAN_MOTION    = 15.49286960
ECCENTRICITY   = .0000977
INCLINATION    = 53.1588
RA_OF_ASC_NODE = 286.5905
ARG_OF_PERICENTER = 97.8417
MEAN_ANOMALY   = 262.2703

EPHEMERIS_TYPE = 0
CLASSIFICATION_TYPE = U
NORAD_CAT_ID   = 66016
ELEMENT_SET_NO = 999
REV_AT_EPOCH   = 557
BSTAR          = .13469E-2
MEAN_MOTION_DOT = .75124E-3
MEAN_MOTION_DDOT = 0

CCSDS_OMM_VERS = 2.0
CREATION_DATE  = 
ORIGINATOR     = 

OBJECT_NAME    = STARLINK-35398
OBJECT_ID      = 2025-232N
CENTER_NAME    = EARTH
REF_FRAME      = TEME
TIME_SYSTEM    = UTC
MEAN_ELEMENT_THEORY = SGP/SGP4

EPOCH          = 2025-11-13T04:36:45.302400
MEAN_MOTION    = 15.39620749
ECCENTRICITY   = .000213
INCLINATION    = 53.1609
RA_OF_ASC_NODE = 286.8492
ARG_OF_PERICENTER = 81.5888
MEAN_ANOMALY   = 278.5358

EPHEMERIS_TYPE = 0
CLASSIFICATION_TYPE = U
NORAD_CAT_ID   = 66017
ELEMENT_SET_NO = 999
REV_AT_EPOCH   = 557
BSTAR          = .16615E-2
MEAN_MOTION_DOT = .66644E-3
MEAN_MOTION_DDOT = 0

CCSDS_OMM_VERS = 2.0
CREATION_DATE  = 
ORIGINATOR     = 

OBJECT_NAME    = STARLINK-35376
OBJECT_ID      = 2025-232P
CENTER_NAME    = EARTH
REF_FRAME      = TEME
TIME_SYSTEM    = UTC
MEAN_ELEMENT_THEORY = SGP/SGP4

EPOCH          = 2025-11-13T04:00:03.998880
MEAN_MOTION    = 15.39571786
ECCENTRICITY   = .0001337
INCLINATION    = 53.1587
RA_OF_ASC_NODE = 286.6080
ARG_OF_PERICENTER = 98.3230
MEAN_ANOMALY   = 302.6684

EPHEMERIS_TYPE = 0
CLASSIFICATION_TYPE = U
NORAD_CAT_ID   = 66018
ELEMENT_SET_NO = 999
REV_AT_EPOCH   = 479
BSTAR          = .8056E-3
MEAN_MOTION_DOT = .31908E-3
MEAN_MOTION_DDOT = 0

