STARLINK-35196          
1 66007U 25232C   25317.16671295  .00038732  00000+0  97498-3 0  9990
2 66007  53.1600 286.8143 0001118 107.1137 190.8656 15.39569558  4790
STARLINK-35236          
1 66008U 25232D   25317.15387993  .00058046  00000+0  10461-2 0  9993
2 66008  53.1587 286.6089 0001558  50.0878 310.0268 15.49249828  5554
STARLINK-35276          
1 66009U 25232E   25317.18720822  .00065282  00000+0  16286-2 0  9990
2 66009  53.1599 286.8188 0000851  50.6297 309.4784 15.39611066  5557
STARLINK-35297          
1 66010U 25232F   25317.16671295 -.02070539  00000+0 -51513-1 0  9995
2 66010  53.1592 286.5696 0001134  84.0381 337.1855 15.43340477  4795
STARLINK-35256          
1 66011U 25232G   25317.16671295  .00038737  00000+0  97510-3 0  9995
2 66011  53.1597 286.7612 0001954  82.5591 241.1745 15.39569105  4795
STARLINK-35293          
1 66012U 25232H   25317.16671295  .00046089  00000+0  11575-2 0  9991
2 66012  53.1591 286.7106 0001168  91.8510 257.6449 15.39559852  4790
STARLINK-35307          
1 66013U 25232J   25317.19184931  .00078488  00000+0  19594-2 0  9998
2 66013  53.1607 286.8483 0001316 104.1093 256.0058 15.39504599  5571
STARLINK-35395          
1 66014U 25232K   25317.18257542  .00078091  00000+0  19450-2 0  9998
2 66014  53.1594 286.7893 0001960 106.9482 253.1738 15.39577523  5578
STARLINK-34622          
1 66015U 25232L   25317.15078795  .00105421  00000+0  18800-2 0  9993
2 66015  53.1587 286.5878 0000852  25.4145 334.6906 15.49278719  5569
STARLINK-35243          
1 66016U 25232M   25317.15113297  .00075124  00000+0  13469-2 0  9993
2 66016  53.1588 286.5905 0000977  97.8417 262.2703 15.49286960  5574
STARLINK-35398          
1 66017U 25232N   25317.19219100  .00066644  00000+0  16615-2 0  9991
2 66017  53.1609 286.8492 0002130  81.5888 278.5358 15.39620749  5570
STARLINK-35376          
1 66018U 25232P   25317.16671295  .00031908  00000+0  80560-3 0  9992
2 66018  53.1587 286.6080 0001337  98.3230 302.6684 15.39571786  4792
